{
  "type": "FeatureCollection",
  "features": [
    {
      "type": "Feature",
      "properties": {
        "norad_id": 34350,
        "name": "IRIDIUM 33 DEB",
        "group": "iridium-33-debris",
        "lat": -81.04572332100278,
        "lon": -26.345628752907132,
        "alt_km": 764.836979447934,
        "timestamp": "2025-12-24T11:33:00.402695+00:00",
        "meta_object_name": "IRIDIUM 33 DEB",
        "meta_object_id": "1997-051ES",
        "meta_epoch": "2025-12-24T00:32:43.401984",
        "meta_mean_motion": 14.45412169,
        "meta_eccentricity": 0.0023488,
        "meta_inclination": 86.3272,
        "meta_ra_of_asc_node": 357.9107,
        "meta_arg_of_pericenter": 100.6701,
        "meta_mean_anomaly": 313.0828,
        "meta_ephemeris_type": 0,
        "meta_classification_type": "U",
        "meta_norad_cat_id": 34350,
        "meta_element_set_no": 999,
        "meta_rev_at_epoch": 88456,
        "meta_bstar": 0.00031816,
        "meta_mean_motion_dot": 1.143e-05,
        "meta_mean_motion_ddot": 0,
        "tle_line1": "1 34350U 97051ES  25358.02272456  .00001143  00000+0  31816-3 0  9998",
        "tle_line2": "2 34350  86.3272 357.9107 0023488 100.6701 313.0828 14.45412169884560"
      },
      "geometry": {
        "type": "Point",
        "coordinates": [
          -26.345628752907132,
          -81.04572332100278
        ]
      }
    },
    {
      "type": "Feature",
      "properties": {
        "norad_id": 34366,
        "name": "IRIDIUM 33 DEB",
        "group": "iridium-33-debris",
        "lat": -73.21791342544799,
        "lon": -123.63700075114203,
        "alt_km": 733.747882567005,
        "timestamp": "2025-12-24T11:33:00.402705+00:00",
        "meta_object_name": "IRIDIUM 33 DEB",
        "meta_object_id": "1997-051FJ",
        "meta_epoch": "2025-12-24T02:15:45.125856",
        "meta_mean_motion": 14.54140712,
        "meta_eccentricity": 0.0023025,
        "meta_inclination": 86.3684,
        "meta_ra_of_asc_node": 44.3742,
        "meta_arg_of_pericenter": 104.399,
        "meta_mean_anomaly": 284.5234,
        "meta_ephemeris_type": 0,
        "meta_classification_type": "U",
        "meta_norad_cat_id": 34366,
        "meta_element_set_no": 999,
        "meta_rev_at_epoch": 88347,
        "meta_bstar": 0.000917,
        "meta_mean_motion_dot": 3.91e-05,
        "meta_mean_motion_ddot": 0,
        "tle_line1": "1 34366U 97051FJ  25358.09427229  .00003910  00000+0  91700-3 0  9994",
        "tle_line2": "2 34366  86.3684  44.3742 0023025 104.3990 284.5234 14.54140712883478"
      },
      "geometry": {
        "type": "Point",
        "coordinates": [
          -123.63700075114203,
          -73.21791342544799
        ]
      }
    },
    {
      "type": "Feature",
      "properties": {
        "norad_id": 34375,
        "name": "IRIDIUM 33 DEB",
        "group": "iridium-33-debris",
        "lat": 83.64981423450138,
        "lon": -147.93422246587465,
        "alt_km": 750.1851663819734,
        "timestamp": "2025-12-24T11:33:00.402716+00:00",
        "meta_object_name": "IRIDIUM 33 DEB",
        "meta_object_id": "1997-051FT",
        "meta_epoch": "2025-12-23T23:53:27.636000",
        "meta_mean_motion": 14.18011996,
        "meta_eccentricity": 0.0103696,
        "meta_inclination": 86.4323,
        "meta_ra_of_asc_node": 178.164,
        "meta_arg_of_pericenter": 91.5399,
        "meta_mean_anomaly": 34.9546,
        "meta_ephemeris_type": 0,
        "meta_classification_type": "U",
        "meta_norad_cat_id": 34375,
        "meta_element_set_no": 999,
        "meta_rev_at_epoch": 86871,
        "meta_bstar": 0.00038612,
        "meta_mean_motion_dot": 8.53e-06,
        "meta_mean_motion_ddot": 0,
        "tle_line1": "1 34375U 97051FT  25357.99545875  .00000853  00000+0  38612-3 0  9996",
        "tle_line2": "2 34375  86.4323 178.1640 0103696  91.5399  34.9546 14.18011996868719"
      },
      "geometry": {
        "type": "Point",
        "coordinates": [
          -147.93422246587465,
          83.64981423450138
        ]
      }
    },
    {
      "type": "Feature",
      "properties": {
        "norad_id": 34376,
        "name": "IRIDIUM 33 DEB",
        "group": "iridium-33-debris",
        "lat": -1.8907090919413607,
        "lon": -178.61734154192328,
        "alt_km": 675.8236884089083,
        "timestamp": "2025-12-24T11:33:00.402727+00:00",
        "meta_object_name": "IRIDIUM 33 DEB",
        "meta_object_id": "1997-051FU",
        "meta_epoch": "2025-12-24T00:52:22.525248",
        "meta_mean_motion": 14.62714709,
        "meta_eccentricity": 0.0028375,
        "meta_inclination": 86.2981,
        "meta_ra_of_asc_node": 1.4602,
        "meta_arg_of_pericenter": 129.6152,
        "meta_mean_anomaly": 230.7571,
        "meta_ephemeris_type": 0,
        "meta_classification_type": "U",
        "meta_norad_cat_id": 34376,
        "meta_element_set_no": 999,
        "meta_rev_at_epoch": 88172,
        "meta_bstar": 0.0014768,
        "meta_mean_motion_dot": 7.587e-05,
        "meta_mean_motion_ddot": 0,
        "tle_line1": "1 34376U 97051FU  25358.03637182  .00007587  00000+0  14768-2 0  9992",
        "tle_line2": "2 34376  86.2981   1.4602 0028375 129.6152 230.7571 14.62714709881725"
      },
      "geometry": {
        "type": "Point",
        "coordinates": [
          -178.61734154192328,
          -1.8907090919413607
        ]
      }
    },
    {
      "type": "Feature",
      "properties": {
        "norad_id": 34486,
        "name": "IRIDIUM 33 DEB",
        "group": "iridium-33-debris",
        "lat": 7.8239704435988315,
        "lon": 7.0991585403185065,
        "alt_km": 577.1575656487921,
        "timestamp": "2025-12-24T11:33:00.402738+00:00",
        "meta_object_name": "IRIDIUM 33 DEB",
        "meta_object_id": "1997-051GB",
        "meta_epoch": "2025-12-24T00:31:38.958816",
        "meta_mean_motion": 14.96285435,
        "meta_eccentricity": 0.0013923,
        "meta_inclination": 86.3926,
        "meta_ra_of_asc_node": 6.8146,
        "meta_arg_of_pericenter": 80.2681,
        "meta_mean_anomaly": 335.5299,
        "meta_ephemeris_type": 0,
        "meta_classification_type": "U",
        "meta_norad_cat_id": 34486,
        "meta_element_set_no": 999,
        "meta_rev_at_epoch": 89155,
        "meta_bstar": 0.0020881,
        "meta_mean_motion_dot": 0.00023707,
        "meta_mean_motion_ddot": 0,
        "tle_line1": "1 34486U 97051GB  25358.02197869  .00023707  00000+0  20881-2 0  9991",
        "tle_line2": "2 34486  86.3926   6.8146 0013923  80.2681 335.5299 14.96285435891550"
      },
      "geometry": {
        "type": "Point",
        "coordinates": [
          7.0991585403185065,
          7.8239704435988315
        ]
      }
    },
    {
      "type": "Feature",
      "properties": {
        "norad_id": 34487,
        "name": "IRIDIUM 33 DEB",
        "group": "iridium-33-debris",
        "lat": -46.5224019558877,
        "lon": 3.454059345609484,
        "alt_km": 772.3874586434922,
        "timestamp": "2025-12-24T11:33:00.402748+00:00",
        "meta_object_name": "IRIDIUM 33 DEB",
        "meta_object_id": "1997-051GC",
        "meta_epoch": "2025-12-24T00:25:07.191840",
        "meta_mean_motion": 14.43230021,
        "meta_eccentricity": 0.0033256,
        "meta_inclination": 86.3429,
        "meta_ra_of_asc_node": 7.5212,
        "meta_arg_of_pericenter": 93.3155,
        "meta_mean_anomaly": 332.1294,
        "meta_ephemeris_type": 0,
        "meta_classification_type": "U",
        "meta_norad_cat_id": 34487,
        "meta_element_set_no": 999,
        "meta_rev_at_epoch": 88411,
        "meta_bstar": 0.00017641,
        "meta_mean_motion_dot": 6.17e-06,
        "meta_mean_motion_ddot": 0,
        "tle_line1": "1 34487U 97051GC  25358.01744435  .00000617  00000+0  17641-3 0  9994",
        "tle_line2": "2 34487  86.3429   7.5212 0033256  93.3155 332.1294 14.43230021884118"
      },
      "geometry": {
        "type": "Point",
        "coordinates": [
          3.454059345609484,
          -46.5224019558877
        ]
      }
    },
    {
      "type": "Feature",
      "properties": {
        "norad_id": 34488,
        "name": "IRIDIUM 33 DEB",
        "group": "iridium-33-debris",
        "lat": 19.82808593445232,
        "lon": -58.685370419519884,
        "alt_km": 462.6056307611161,
        "timestamp": "2025-12-24T11:33:00.402759+00:00",
        "meta_object_name": "IRIDIUM 33 DEB",
        "meta_object_id": "1997-051GD",
        "meta_epoch": "2025-12-23T07:14:56.478912",
        "meta_mean_motion": 15.32002527,
        "meta_eccentricity": 0.00097213,
        "meta_inclination": 86.3275,
        "meta_ra_of_asc_node": 300.5735,
        "meta_arg_of_pericenter": 36.3388,
        "meta_mean_anomaly": 323.852,
        "meta_ephemeris_type": 0,
        "meta_classification_type": "U",
        "meta_norad_cat_id": 34488,
        "meta_element_set_no": 999,
        "meta_rev_at_epoch": 89401,
        "meta_bstar": 0.0045068376,
        "meta_mean_motion_dot": 0.00141753,
        "meta_mean_motion_ddot": 0,
        "tle_line1": "1 34488U 97051GD  25357.30204258  .00141753  00000+0  45068-2 0  9990",
        "tle_line2": "2 34488  86.3275 300.5735 0009721  36.3388 323.8520 15.32002527894015"
      },
      "geometry": {
        "type": "Point",
        "coordinates": [
          -58.685370419519884,
          19.82808593445232
        ]
      }
    }
  ]
}